1 26360U 00025A   23300.79294067 -.00000065  00000+0  00000+0 0  9996
2 26360  54.4778  58.4152 0041849 202.6195 138.7100  2.00566963171949